     3.02           N: GNSS NAV DATA    E: GALILEO          RINEX VERSION / TYPE
sbf2rin-9.3.3                           20160106 001922 LCL PGM / RUN BY / DATE 
GAL    8.5250E+01 -8.7891E-01  7.8125E-03  0.0000E+00       IONOSPHERIC CORR    
GPGA -2.1536834538E-09-1.776356839E-15 259200 1878          TIME SYSTEM CORR    
GAUT -3.7252902985E-09 3.552713679E-15 172800 1878          TIME SYSTEM CORR    
    17                                                      LEAP SECONDS        
                                                            END OF HEADER       
E12 2016 01 05 08 50 00-2.417261712253E-04-1.474944610891E-10 0.000000000000E+00
     8.500000000000E+01-2.059375000000E+01 3.077628195568E-09-1.546141658686E+00
    -1.039355993271E-06 2.530764322728E-04 9.994953870773E-06 5.440615949631E+03
     2.046000000000E+05 8.754432201385E-08-2.690532880637E-01-1.769512891769E-07
     9.679979332508E-01 1.297187500000E+02-1.276743067828E+00-5.574160757598E-09
     5.446655446490E-10 2.580000000000E+02 1.878000000000E+03
     3.600000000000E+00 0.000000000000E+00-5.122274160385E-09 0.000000000000E+00
     2.053400000000E+05
E24 2016 01 05 08 50 00 1.474780088756E-03 4.004760967291E-10 0.000000000000E+00
     8.500000000000E+01 3.228125000000E+01 2.780472960717E-09-1.386654388201E+00
     1.443549990654E-06 4.136268980801E-04 1.231208443642E-06 5.440618057251E+03
     2.046000000000E+05-6.332993507385E-08-2.365333858769E+00 1.862645149231E-09
     1.000988198856E+00 3.292812500000E+02-4.968600251287E-02-5.730953002910E-09
     6.571702309208E-11 2.580000000000E+02 1.878000000000E+03
     3.120000000000E+00 8.000000000000E+00 5.238689482212E-08 0.000000000000E+00
     2.053400000000E+05
E11 2016 01 05 08 50 00 1.375336432829E-05 1.097077984014E-11 0.000000000000E+00
     8.500000000000E+01-2.709375000000E+01 3.105843656569E-09-2.956980616512E+00
    -1.223757863045E-06 1.321630552411E-04 1.022033393383E-05 5.440616521835E+03
     2.046000000000E+05-6.332993507385E-08-2.690344529934E-01 4.470348358154E-08
     9.679865078606E-01 1.232812500000E+02-5.843508034594E-01-5.473442276555E-09
     4.785913638228E-10 2.580000000000E+02 1.878000000000E+03
     3.600000000000E+00 8.000000000000E+00-8.149072527885E-09 0.000000000000E+00
     2.053400000000E+05
E12 2016 01 05 09 00 00-2.418140647933E-04-1.474944610891E-10 0.000000000000E+00
     8.600000000000E+01-2.000000000000E+01 3.033340636527E-09-1.471488337601E+00
    -1.005828380585E-06 2.531106583774E-04 9.994953870773E-06 5.440616100311E+03
     2.052000000000E+05 2.235174179077E-08-2.690563806725E-01-6.705522537231E-08
     9.679987334670E-01 1.297500000000E+02-1.277011264599E+00-5.496657529278E-09
     4.907347267854E-10 5.130000000000E+02 1.878000000000E+03
     5.520000000000E+00 0.000000000000E+00-5.122274160385E-09-4.889443516731E-09
     2.058660000000E+05
E11 2016 01 05 09 00 00 1.375970896333E-05 1.098499069485E-11 0.000000000000E+00
     8.600000000000E+01-2.715625000000E+01 3.170132048724E-09-2.882332721390E+00
    -1.225620508194E-06 1.321037998423E-04 1.020170748234E-05 5.440616661072E+03
     2.052000000000E+05-2.104789018631E-07-2.690374271059E-01 5.029141902924E-08
     9.679861582232E-01 1.238125000000E+02-5.846136240069E-01-5.591661486574E-09
     4.778770483544E-10 5.130000000000E+02 1.878000000000E+03
     5.520000000000E+00 6.500000000000E+01-8.149072527885E-09-9.080395102501E-09
     2.058660000000E+05
E24 2016 01 05 09 00 00 1.475026423577E-03 3.999929276688E-10 0.000000000000E+00
     8.600000000000E+01 3.203125000000E+01 2.768686755488E-09-1.312195750791E+00
     1.449137926102E-06 4.136471543461E-04 1.227483153343E-06 5.440618131638E+03
     2.052000000000E+05-9.126961231232E-08-2.365337442919E+00 0.000000000000E+00
     1.000988241281E+00 3.291562500000E+02-4.975956973724E-02-5.718809639948E-09
     8.214627886510E-11 5.130000000000E+02 1.878000000000E+03
     5.520000000000E+00 6.500000000000E+01 5.238689482212E-08 5.820766091347E-08
     2.058660000000E+05
E12 2016 01 05 09 00 00-2.418148214929E-04-1.474944610891E-10 0.000000000000E+00
     8.600000000000E+01-2.000000000000E+01 3.033340636527E-09-1.471488337601E+00
    -1.005828380585E-06 2.531106583774E-04 9.994953870773E-06 5.440616100311E+03
     2.052000000000E+05 2.235174179077E-08-2.690563806725E-01-6.705522537231E-08
     9.679987334670E-01 1.297500000000E+02-1.277011264599E+00-5.496657529278E-09
     4.907347267854E-10 2.580000000000E+02 1.878000000000E+03
     3.600000000000E+00 0.000000000000E+00-5.122274160385E-09 0.000000000000E+00
     2.059400000000E+05
E11 2016 01 05 09 00 00 1.375982537866E-05 1.097077984014E-11 0.000000000000E+00
     8.600000000000E+01-2.715625000000E+01 3.170132048724E-09-2.882332721390E+00
    -1.225620508194E-06 1.321037998423E-04 1.020170748234E-05 5.440616661072E+03
     2.052000000000E+05-2.104789018631E-07-2.690374271059E-01 5.029141902924E-08
     9.679861582232E-01 1.238125000000E+02-5.846136240069E-01-5.591661486574E-09
     4.778770483544E-10 2.580000000000E+02 1.878000000000E+03
     3.600000000000E+00 8.000000000000E+00-8.149072527885E-09 0.000000000000E+00
     2.059400000000E+05
E24 2016 01 05 09 00 00 1.475020369980E-03 4.004760967291E-10 0.000000000000E+00
     8.600000000000E+01 3.203125000000E+01 2.768686755488E-09-1.312195750791E+00
     1.449137926102E-06 4.136471543461E-04 1.227483153343E-06 5.440618131638E+03
     2.052000000000E+05-9.126961231232E-08-2.365337442919E+00 0.000000000000E+00
     1.000988241281E+00 3.291562500000E+02-4.975956973724E-02-5.718809639948E-09
     8.214627886510E-11 2.580000000000E+02 1.878000000000E+03
     3.120000000000E+00 8.000000000000E+00 5.238689482212E-08 0.000000000000E+00
     2.059400000000E+05
E12 2016 01 05 09 10 00-2.419025986455E-04-1.474944610891E-10 0.000000000000E+00
     8.700000000000E+01-1.996875000000E+01 2.980481291866E-09-1.397087453272E+00
    -9.927898645401E-07 2.531146164984E-04 9.998679161072E-06 5.440616109848E+03
     2.058000000000E+05-1.229345798492E-07-2.690592772503E-01 4.470348358154E-08
     9.679996799750E-01 1.297187500000E+02-1.277027182611E+00-5.398439152374E-09
     4.025167664390E-10 5.130000000000E+02 1.878000000000E+03
     5.520000000000E+00 0.000000000000E+00-5.122274160385E-09-4.889443516731E-09
     2.064660000000E+05
E11 2016 01 05 09 10 00 1.376622822136E-05 1.098499069485E-11 0.000000000000E+00
     8.700000000000E+01-2.706250000000E+01 3.120487123671E-09-2.807417404844E+00
    -1.223757863045E-06 1.320064766333E-04 1.018308103085E-05 5.440616899490E+03
     2.058000000000E+05-1.173466444016E-07-2.690409278688E-01 4.656612873077E-08
     9.679868326284E-01 1.247812500000E+02-5.851435441373E-01-5.519515624266E-09
     4.782342060886E-10 5.130000000000E+02 1.878000000000E+03
     5.520000000000E+00 6.500000000000E+01-8.149072527885E-09-9.080395102501E-09
     2.064660000000E+05
E24 2016 01 05 09 10 00 1.475267054047E-03 3.999929276688E-10 0.000000000000E+00
     8.700000000000E+01 3.190625000000E+01 2.761186443070E-09-1.237785622282E+00
     1.462176442146E-06 4.136572824791E-04 1.223757863045E-06 5.440618162155E+03
     2.058000000000E+05-1.005828380585E-07-2.365340931978E+00-5.587935447693E-09
     1.000988292483E+00 3.291250000000E+02-4.978469389233E-02-5.713809431669E-09
     8.750364487804E-11 5.130000000000E+02 1.878000000000E+03
     5.520000000000E+00 6.500000000000E+01 5.238689482212E-08 5.820766091347E-08
     2.064660000000E+05
E12 2016 01 05 09 10 00-2.419033553451E-04-1.474944610891E-10 0.000000000000E+00
     8.700000000000E+01-1.996875000000E+01 2.980481291866E-09-1.397087453272E+00
    -9.927898645401E-07 2.531146164984E-04 9.998679161072E-06 5.440616109848E+03
     2.058000000000E+05-1.229345798492E-07-2.690592772503E-01 4.470348358154E-08
     9.679996799750E-01 1.297187500000E+02-1.277027182611E+00-5.398439152374E-09
     4.025167664390E-10 2.580000000000E+02 1.878000000000E+03
     3.600000000000E+00 0.000000000000E+00-5.122274160385E-09 0.000000000000E+00
     2.065400000000E+05
E11 2016 01 05 09 10 00 1.376628642902E-05 1.097077984014E-11 0.000000000000E+00
     8.700000000000E+01-2.706250000000E+01 3.120487123671E-09-2.807417404844E+00
    -1.223757863045E-06 1.320064766333E-04 1.018308103085E-05 5.440616899490E+03
     2.058000000000E+05-1.173466444016E-07-2.690409278688E-01 4.656612873077E-08
     9.679868326284E-01 1.247812500000E+02-5.851435441373E-01-5.519515624266E-09
     4.782342060886E-10 2.580000000000E+02 1.878000000000E+03
     3.600000000000E+00 8.000000000000E+00-8.149072527885E-09 0.000000000000E+00
     2.065400000000E+05
E24 2016 01 05 09 10 00 1.475260942243E-03 4.004760967291E-10 0.000000000000E+00
     8.700000000000E+01 3.190625000000E+01 2.761186443070E-09-1.237785622282E+00
     1.462176442146E-06 4.136572824791E-04 1.223757863045E-06 5.440618162155E+03
     2.058000000000E+05-1.005828380585E-07-2.365340931978E+00-5.587935447693E-09
     1.000988292483E+00 3.291250000000E+02-4.978469389233E-02-5.713809431669E-09
     8.750364487804E-11 2.580000000000E+02 1.878000000000E+03
     3.120000000000E+00 8.000000000000E+00 5.238689482212E-08 0.000000000000E+00
     2.065400000000E+05
E12 2016 01 05 09 20 00-2.419909578748E-04-1.474944610891E-10 0.000000000000E+00
     8.800000000000E+01-2.056250000000E+01 2.953694461802E-09-1.322958188942E+00
    -1.007691025734E-06 2.530713099986E-04 9.998679161072E-06 5.440615957260E+03
     2.064000000000E+05-2.402812242508E-07-2.690622308819E-01 8.009374141693E-08
     9.680003353623E-01 1.298437500000E+02-1.276771490863E+00-5.343079703573E-09
     3.389426897521E-10 5.130000000000E+02 1.878000000000E+03
     5.520000000000E+00 0.000000000000E+00-5.122274160385E-09-4.889443516731E-09
     2.070660000000E+05
